[{"OBJECT_NAME":"STARLINK-35017","OBJECT_ID":"2025-184V","EPOCH":"2026-03-09T16:25:05.764800","MEAN_MOTION":15.0564487,"ECCENTRICITY":7.566e-5,"INCLINATION":97.6034,"RA_OF_ASC_NODE":122.71,"ARG_OF_PERICENTER":106.689,"MEAN_ANOMALY":253.4419,"EPHEMERIS_TYPE":0,"CLASSIFICATION_TYPE":"U","NORAD_CAT_ID":65292,"ELEMENT_SET_NO":999,"REV_AT_EPOCH":3125,"BSTAR":0.00022122538,"MEAN_MOTION_DOT":3.132e-5,"MEAN_MOTION_DDOT":0},{"OBJECT_NAME":"CZ-2D DEB","OBJECT_ID":"2010-027G","EPOCH":"2026-03-07T07:54:25.300800","MEAN_MOTION":15.18267572,"ECCENTRICITY":0.0071051,"INCLINATION":97.484,"RA_OF_ASC_NODE":105.3106,"ARG_OF_PERICENTER":258.5099,"MEAN_ANOMALY":100.8151,"EPHEMERIS_TYPE":0,"CLASSIFICATION_TYPE":"U","NORAD_CAT_ID":38302,"ELEMENT_SET_NO":999,"REV_AT_EPOCH":83107,"BSTAR":0.0021438,"MEAN_MOTION_DOT":0.00047105,"MEAN_MOTION_DDOT":0}]
